[{"OBJECT_NAME":"QB50P1","OBJECT_ID":"2014-033R","EPOCH":"2026-03-09T23:22:28.219872","MEAN_MOTION":15.16526525,"ECCENTRICITY":0.00083666,"INCLINATION":98.1009,"RA_OF_ASC_NODE":73.2758,"ARG_OF_PERICENTER":193.7221,"MEAN_ANOMALY":166.3784,"EPHEMERIS_TYPE":0,"CLASSIFICATION_TYPE":"U","NORAD_CAT_ID":40025,"ELEMENT_SET_NO":999,"REV_AT_EPOCH":63798,"BSTAR":0.00058166231,"MEAN_MOTION_DOT":0.00011283,"MEAN_MOTION_DDOT":0},{"OBJECT_NAME":"FOSSASAT-2E24","OBJECT_ID":"2025-276DV","EPOCH":"2026-03-09T18:37:38.318016","MEAN_MOTION":15.18161624,"ECCENTRICITY":0.000615,"INCLINATION":97.4247,"RA_OF_ASC_NODE":143.9285,"ARG_OF_PERICENTER":111.9769,"MEAN_ANOMALY":248.2119,"EPHEMERIS_TYPE":0,"CLASSIFICATION_TYPE":"U","NORAD_CAT_ID":66780,"ELEMENT_SET_NO":999,"REV_AT_EPOCH":1532,"BSTAR":0.00023488537,"MEAN_MOTION_DOT":4.733e-5,"MEAN_MOTION_DDOT":0}]
